[
    {
        "Altitude(m)": 611965.1685912928,
        "Argument of Periapsis(deg)": 0.0,
        "Eccentricity": 0.0,
        "Inclination(deg)": 60.0,
        "Latitude(deg)": 59.14011074627862,
        "Longitude(deg)": -101.03014339918242,
        "Mean Anomaly(deg)": -278.1818,
        "RAAN(deg)": 285.0,
        "Satellite Name": "Test1 1259",
        "Satellite Number": 1259,
        "Semi-Major Axis(m)": 6980739.136638005,
        "Time(s)": 0
    },
    {
        "Altitude(m)": 611995.7939937391,
        "Argument of Periapsis(deg)": 0.00010418945913296404,
        "Eccentricity": 0.0,
        "Inclination(deg)": 60.0,
        "Latitude(deg)": 59.28321028440008,
        "Longitude(deg)": -99.89678269368859,
        "Mean Anomaly(deg)": -277.56169385453813,
        "RAAN(deg)": 284.9995799508602,
        "Satellite Name": "Test1 1259",
        "Satellite Number": 1259,
        "Semi-Major Axis(m)": 6980739.136638005,
        "Time(s)": 10
    }
]